STARS (KUKAI)           
1 33498U 09002G   26187.35080617  .00004277  00000+0  38755-3 0  9992
2 33498  98.1560 135.4433 0010294 103.6836 256.5531 14.95893648941349
KKS-1 (KISEKI)          
1 33499U 09002H   26187.82148354  .00001220  00000+0  15632-3 0  9992
2 33499  98.1180 110.5748 0006780 218.7536 141.3192 14.83174932939101
UK-DMC 2                
1 35683U 09041C   26187.88461360  .00001655  00000+0  24706-3 0  9997
2 35683  97.8864 322.3723 0001337  98.6238 261.5124 14.76090068909472
OCEANSAT-2              
1 35931U 09051A   26187.85820153 -.00000190  00000+0 -10424-3 0  9997
2 35931  98.2318 172.7459 0016780 177.7227 182.4019 13.99657766882084
SWISSCUBE               
1 35932U 09051B   26187.73580808  .00000901  00000+0  18748-3 0  9990
2 35932  98.4019  95.9636 0007377 142.1539 218.0181 14.62519591892016
BEESAT-1                
1 35933U 09051C   26187.68699793  .00000825  00000+0  17521-3 0  9992
2 35933  98.3946  95.5083 0005594 152.8546 207.2947 14.61752775892036
ITUPSAT1                
1 35935U 09051E   26187.69497892  .00000747  00000+0  16401-3 0  9990
2 35935  98.4028  94.6875 0007469 168.0612 192.0766 14.60470304891588
DMSP 5D-3 F18 (USA 210) 
1 35951U 09057A   26187.80005354  .00000190  00000+0  12156-3 0  9990
2 35951  98.9048 168.5274 0010724 189.3848 170.7127 14.14907573862362
PROBA-2                 
1 36037U 09059B   26187.77269363  .00000187  00000+0  54159-4 0  9992
2 36037  98.2457  10.8544 0012439 215.7481 144.2885 14.54871067884370
YAOGAN-7                
1 36110U 09069A   26187.65378916  .00000467  00000+0  71723-4 0  9994
2 36110  98.0047  73.3985 0024100 339.8276  20.1980 14.78030005892503
XIWANG-1 (HOPE-1)       
1 36122U 09072B   26187.85165522  .00000203  00000+0  64798-3 0  9991
2 36122 100.4036 141.3705 0007295 183.8197 176.2861 13.16439928795593
COSMOS 2463             
1 36519U 10017A   26187.67815703  .00000035  00000+0  21698-4 0  9991
2 36519  82.9588 235.3856 0037569  76.7397  42.2999 13.71666839810607
CARTOSAT-2B             
1 36795U 10035A   26187.82878382  .00000784  00000+0  11417-3 0  9994
2 36795  97.9937 238.2523 0012316 123.4294 236.8097 14.78610538862755
TISAT 1                 
1 36799U 10035E   26187.38438784  .00019611  00000+0  62689-3 0  9993
2 36799  98.0714 135.6467 0004016 127.7784 232.3820 15.32488033870646
YAOGAN-10               
1 36834U 10038A   26187.89789444  .00001750  00000+0  20947-3 0  9990
2 36834  97.8969 211.1446 0001614  84.5037  36.1055 14.85411784860133
SHIJIAN-6 04B (SJ-6 04B)
1 37180U 10051B   26187.84391076  .00001497  00000+0  12733-3 0  9997
2 37180  97.8738 193.4623 0006978 240.8021 119.2504 14.99378214858627
FENGYUN 3B              
1 37214U 10059A   26187.90460913 -.00000063  00000+0 -94349-5 0  9992
2 37214  98.9606 234.0018 0022922 129.0820 352.0889 14.14846047810210
COSMO-SKYMED 4          
1 37216U 10060A   26187.81925569  .00001245  00000+0  16285-3 0  9991
2 37216  97.8895  11.1347 0001520  86.2606 273.8781 14.82165514847473
O/OREOS (USA 219)       
1 37224U 10062C   26187.68379428  .00002024  00000+0  19618-3 0  9993
2 37224  71.9707  36.1728 0013447  21.9928 338.1817 14.93829265119559
RESOURCESAT-2           
1 37387U 11015A   26187.79620843  .00000073  00000+0  53528-4 0  9995
2 37387  98.7635 255.1018 0011088 195.0494 165.0355 14.21604729788969
YOUTHSAT                
1 37388U 11015B   26187.87773079  .00000156  00000+0  83336-4 0  9997
2 37388  98.3695 161.0451 0013238 285.9656 132.9346 14.25638232790445
APRIZESAT 6             
1 37793U 11044F   26187.72479228  .00000812  00000+0  12153-3 0  9999
2 37793  98.2347  98.6222 0043727  25.1391  28.6385 14.76947912800030
JUGNU                   
1 37839U 11058B   26187.14071160  .00000403  00000+0  70824-4 0  9990
2 37839  19.9587 193.2770 0018346 285.8681 133.6572 14.13781484761710
SRMSAT                  
1 37841U 11058D   26187.37330642  .00000384  00000+0  64430-4 0  9995
2 37841  19.9727 303.3445 0011875  55.1210 344.5933 14.11579689760531
SUOMI NPP               
1 37849U 11061A   26187.86515774  .00000061  00000+0  49892-4 0  9999
2 37849  98.7955 128.6071 0000569 278.3728  81.7383 14.19521410761235
YAOGAN-12               
1 37875U 11066B   26187.86299521  .00004434  00000+0  17053-3 0  9993
2 37875  97.1130 225.5073 0010512 148.0338 212.1541 15.26838538815046
